STARLINK-34864          
1 65330U 25189H   26068.59686433  .00020547  00000+0  70413-3 0  9993
2 65330  53.1579 207.0961 0001080  83.5896 276.5227 15.30191136 31096
KUIPER-00208            
1 67775U 26030M   26068.67231509  .00043852  00000+0  13883-2 0  9994
2 67775  51.8846 219.6993 0015525  57.3146 302.9333 15.32208734  5080
