[{"OBJECT_NAME":"STARLINK-34864","OBJECT_ID":"2025-189H","EPOCH":"2026-03-09T14:19:29.078112","MEAN_MOTION":15.30191136,"ECCENTRICITY":0.000108,"INCLINATION":53.1579,"RA_OF_ASC_NODE":207.0961,"ARG_OF_PERICENTER":83.5896,"MEAN_ANOMALY":276.5227,"EPHEMERIS_TYPE":0,"CLASSIFICATION_TYPE":"U","NORAD_CAT_ID":65330,"ELEMENT_SET_NO":999,"REV_AT_EPOCH":3109,"BSTAR":0.00070413,"MEAN_MOTION_DOT":0.00020547,"MEAN_MOTION_DDOT":0},{"OBJECT_NAME":"KUIPER-00208","OBJECT_ID":"2026-030M","EPOCH":"2026-03-09T16:08:08.024640","MEAN_MOTION":15.32208734,"ECCENTRICITY":0.00155248,"INCLINATION":51.8846,"RA_OF_ASC_NODE":219.6993,"ARG_OF_PERICENTER":57.3146,"MEAN_ANOMALY":302.9333,"EPHEMERIS_TYPE":0,"CLASSIFICATION_TYPE":"U","NORAD_CAT_ID":67775,"ELEMENT_SET_NO":999,"REV_AT_EPOCH":508,"BSTAR":0.0013882708,"MEAN_MOTION_DOT":0.00043852,"MEAN_MOTION_DDOT":0}]
